     2.10           NAVIGATION                              RINEX VERSION / TYPE
fic2rin                                 08/11/2008 06:12:55 PGM / RUN BY / DATE
                                                            END OF HEADER
31 08  8 10  4  0  0.0 -.250479206443D-04 -.113686837722D-12  .000000000000D+00
     .970000000000D+02 -.734687500000D+02  .404659712844D-08  .263583437365D+01
    -.361353158951D-05  .664173159748D-02  .623427331448D-05  .515379708672D+04
     .144000000000D+05  .223517417908D-07  .159918571212D+01  .353902578354D-07
     .968633473141D+00  .262968750000D+03 -.122186567083D+01 -.770532095755D-08
     .557166065346D-10  .100000000000D+01  .149200000000D+04  .000000000000D+00
     .340000000000D+01  .000000000000D+00 -.130385160446D-07  .970000000000D+02
     .720600000000D+04  .400000000000D+01
32 08  8 10  4  0  0.0  .312533695251D-03  .193267624127D-11  .000000000000D+00
     .880000000000D+02  .703125000000D+02  .421874715632D-08 -.257165692262D+01
     .368244946003D-05  .139239701675D-01  .526383519173D-05  .515380554008D+04
     .144000000000D+05  .596046447754D-07 -.406863884017D+00  .188127160072D-06
     .968303920122D+00  .278093750000D+03 -.129991862774D+01 -.772567894840D-08
    -.732173355102D-10  .100000000000D+01  .149200000000D+04  .000000000000D+00
     .340000000000D+01  .000000000000D+00 -.279396772385D-08  .880000000000D+02
     .720600000000D+04  .400000000000D+01
 3 08  8 10  3 59 44.0  .267548952252D-03  .522959453519D-11  .000000000000D+00
     .800000000000D+01 -.987500000000D+01  .550130057982D-08 -.196328595959D+01
    -.746920704842D-06  .109564681770D-01  .649318099022D-05  .515368738556D+04
     .143840000000D+05  .141561031342D-06 -.269360553087D+01 -.800937414169D-07
     .926161893560D+00  .230718750000D+03  .832795338411D+00 -.826284418063D-08
     .221437795202D-09  .100000000000D+01  .149200000000D+04  .000000000000D+00
     .240000000000D+01  .000000000000D+00 -.419095158577D-08  .800000000000D+01
     .870600000000D+04  .400000000000D+01
 7 08  8 10  3 59 44.0  .675953924656D-05  .420641299570D-11  .000000000000D+00
     .230000000000D+02 -.597187500000D+02  .427124934325D-08  .304764585685D+01
    -.309757888317D-05  .205585046206D-02  .669248402119D-05  .515370378304D+04
     .143840000000D+05  .130385160446D-07  .160269450796D+01 -.558793544769D-08
     .963161287625D+00  .251218750000D+03  .266603067785D+01 -.793425906517D-08
     .646455498895D-10  .100000000000D+01  .149200000000D+04  .000000000000D+00
     .240000000000D+01  .000000000000D+00 -.107102096081D-07  .230000000000D+02
     .945600000000D+04  .400000000000D+01
32 08  8 10  3 59 44.0  .312529969960D-03  .193267624127D-11  .000000000000D+00
     .340000000000D+02  .703125000000D+02  .421874715632D-08 -.257399023746D+01
     .368244946003D-05  .139239710988D-01  .526383519173D-05  .515380553436D+04
     .143840000000D+05  .596046447754D-07 -.406863752354D+00  .188127160072D-06
     .968303912808D+00  .278093750000D+03 -.129991880914D+01 -.772567894840D-08
    -.732173355102D-10  .100000000000D+01  .149200000000D+04  .000000000000D+00
     .240000000000D+01  .000000000000D+00 -.279396772385D-08  .340000000000D+02
     .109860000000D+05  .400000000000D+01
 3 08  8 10  5 59 44.0  .267586670816D-03  .522959453519D-11  .000000000000D+00
     .900000000000D+01 -.403125000000D+01  .552987319856D-08 -.913177075113D+00
     .223517417908D-07  .109565422172D-01  .662356615067D-05  .515368592453D+04
     .215840000000D+05  .162050127983D-06 -.269366487267D+01  .169500708580D-06
     .926162322195D+00  .231406250000D+03  .832866284087D+00 -.847678166341D-08
     .115719105880D-09  .100000000000D+01  .149200000000D+04  .000000000000D+00
     .240000000000D+01  .000000000000D+00 -.419095158577D-08  .900000000000D+01
     .144060000000D+05  .400000000000D+01
 7 08  8 10  5 59 44.0  .678980723023D-05  .420641299570D-11  .000000000000D+00
     .240000000000D+02 -.607187500000D+02  .424589114412D-08 -.218526669416D+01
    -.316090881824D-05  .205525453202D-02  .651553273201D-05  .515370497322D+04
     .215840000000D+05  .186264514923D-08  .160263734151D+01  .186264514923D-07
     .963161676761D+00  .255875000000D+03  .266591815751D+01 -.794640242813D-08
     .589310261424D-10  .100000000000D+01  .149200000000D+04  .000000000000D+00
     .240000000000D+01  .000000000000D+00 -.107102096081D-07  .240000000000D+02
     .144060000000D+05  .400000000000D+01
32 08  8 10  5 59 44.0  .312543939799D-03  .193267624127D-11  .000000000000D+00
     .350000000000D+02  .769062500000D+02  .438446834499D-08 -.152398099673D+01
     .412948429585D-05  .139247914776D-01  .597909092903D-05  .515380274010D+04
     .215840000000D+05 -.303611159325D-06 -.406920049831D+00  .281259417534D-06
     .968301768170D+00  .269281250000D+03 -.129982857636D+01 -.806247869174D-08
    -.975040614355D-10  .100000000000D+01  .149200000000D+04  .000000000000D+00
     .240000000000D+01  .000000000000D+00 -.279396772385D-08  .350000000000D+02
     .144060000000D+05  .400000000000D+01
 2 08  8 10  6  0  0.0  .195966102183D-03 -.272848410532D-11  .000000000000D+00
     .450000000000D+02  .419687500000D+02  .510199823299D-08 -.563291446710D+00
     .217556953430D-05  .873788830359D-02  .784359872341D-05  .515375967598D+04
     .216000000000D+05  .242143869400D-07 -.154894398360D+01 -.115483999252D-06
     .942572953924D+00  .219625000000D+03  .262361652073D+01 -.825641534141D-08
    -.896465912832D-10  .100000000000D+01  .149200000000D+04  .000000000000D+00
     .240000000000D+01  .000000000000D+00 -.172294676304D-07  .450000000000D+02
     .144060000000D+05  .400000000000D+01
 4 08  8 10  6  0  0.0 -.138489063829D-03 -.103455022327D-10  .000000000000D+00
     .510000000000D+02  .395000000000D+02  .504199573365D-08  .219612969476D+01
     .213459134102D-05  .820596388076D-02  .821053981781D-05  .515356832314D+04
     .216000000000D+05 -.217929482460D-06 -.153017442719D+01  .447034835815D-07
     .941862104474D+00  .213000000000D+03  .384894823363D+00 -.811390940547D-08
    -.145363197818D-09  .100000000000D+01  .149200000000D+04  .000000000000D+00
     .240000000000D+01  .000000000000D+00 -.605359673500D-08  .510000000000D+02
     .144060000000D+05  .400000000000D+01
 5 08  8 10  6  0  0.0  .706756953150D-03 -.292175172945D-09  .277555756156D-16
     .320000000000D+02 -.415937500000D+02  .473591155544D-08  .182404830168D+01
    -.226870179176D-05  .916564848740D-02  .788830220699D-05  .515371116447D+04
     .216000000000D+05 -.372529029846D-07  .255754636092D+01 -.188127160072D-06
     .943519469236D+00  .217593750000D+03  .125582431067D+01 -.807390773924D-08
     .360014996070D-09  .100000000000D+01  .149200000000D+04  .000000000000D+00
     .965000000000D+01  .630000000000D+02 -.419095158577D-08  .320000000000D+02
     .144060000000D+05  .400000000000D+01
 6 08  8 10  6  0  0.0  .166514888406D-03  .136424205266D-11  .000000000000D+00
     .890000000000D+02 -.840625000000D+01  .531414992710D-08  .170739149969D+01
    -.506639480591D-06  .583150517195D-02  .690855085850D-05  .515371517372D+04
     .216000000000D+05  .521540641785D-07 -.262845227983D+01 -.188127160072D-06
     .933672386243D+00  .232187500000D+03 -.160666588436D+01 -.825284376407D-08
     .946467995620D-10  .100000000000D+01  .149200000000D+04  .000000000000D+00
     .340000000000D+01  .000000000000D+00 -.465661287308D-08  .890000000000D+02
     .144060000000D+05  .400000000000D+01
 8 08  8 10  6  0  0.0 -.165287405252D-03 -.159161572810D-11  .000000000000D+00
     .200000000000D+02 -.653750000000D+02  .375229915546D-08 -.299470412430D+01
    -.341609120369D-05  .104406252503D-01  .705942511559D-05  .515373035240D+04
     .216000000000D+05 -.987201929092D-07  .165699098897D+01  .596046447754D-07
     .984340093099D+00  .256312500000D+03  .289195781973D+01 -.757710133097D-08
     .146434671020D-10  .100000000000D+01  .149200000000D+04  .000000000000D+00
     .240000000000D+01  .000000000000D+00 -.372529029846D-08  .200000000000D+02
     .144060000000D+05  .400000000000D+01
 9 08  8 10  6  0  0.0  .931601971388D-05  .170530256582D-11  .000000000000D+00
     .700000000000D+01 -.833125000000D+02  .388980488313D-08  .290905792914D+01
    -.412762165070D-05  .201638883445D-01  .670179724693D-05  .515366936111D+04
     .216000000000D+05  .193715095520D-06  .156648719334D+01 -.819563865662D-07
     .972173537399D+00  .251625000000D+03  .143021739391D+01 -.748174021594D-08
    -.103575742917D-10  .100000000000D+01  .149200000000D+04  .000000000000D+00
     .240000000000D+01  .000000000000D+00 -.558793544769D-08  .700000000000D+01
     .144060000000D+05  .400000000000D+01
10 08  8 10  6  0  0.0 -.370992347598D-05 -.341060513165D-12  .000000000000D+00
     .182000000000D+03  .653437500000D+02  .461626371448D-08  .326960395716D+00
     .356324017048D-05  .797832291573D-02  .537186861038D-05  .515368608093D+04
     .216000000000D+05  .428408384323D-07 -.466495268840D+00  .875443220139D-07
     .962731065362D+00  .274218750000D+03  .557979000145D+00 -.821427072878D-08
    -.166792661870D-09  .100000000000D+01  .149200000000D+04  .000000000000D+00
     .340000000000D+01  .000000000000D+00 -.232830643654D-08  .182000000000D+03
     .144060000000D+05  .400000000000D+01
11 08  8 10  6  0  0.0  .219224020839D-04 -.682121026330D-12  .000000000000D+00
     .710000000000D+02  .207187500000D+02  .621204447087D-08 -.256932348929D+01
     .845640897751D-06  .828722130973D-02  .806339085102D-05  .515364077759D+04
     .216000000000D+05  .558793544769D-08 -.173448026306D+01 -.143423676491D-06
     .890437776388D+00  .187593750000D+03  .599733970767D+00 -.860714423639D-08
    -.113933317209D-09  .100000000000D+01  .149200000000D+04  .000000000000D+00
     .240000000000D+01  .000000000000D+00 -.116415321827D-07  .710000000000D+02
     .144060000000D+05  .400000000000D+01
